{
  "type": "FeatureCollection",
  "generator": "overpass-turbo",
  "copyright": "The data included in this document is from www.openstreetmap.org. The data is made available under ODbL.",
  "timestamp": "2026-07-12T04:37:04Z",
  "features": [
    {
      "type": "Feature",
      "properties": {
        "@id": "way/8458446",
        "highway": "primary",
        "name": "Kalyan-Shil Road",
        "name:mr": "कल्याण - शिळ रस्ता",
        "oneway": "yes"
      },
      "geometry": {
        "type": "LineString",
        "coordinates": [
          [
            73.1236035,
            19.2273915
          ],
          [
            73.1235484,
            19.2274874
          ],
          [
            73.1234788,
            19.2275915
          ],
          [
            73.1232338,
            19.2279602
          ],
          [
            73.1231587,
            19.2280748
          ],
          [
            73.1229917,
            19.2282938
          ],
          [
            73.1227805,
            19.2285541
          ],
          [
            73.1226061,
            19.2287504
          ],
          [
            73.1222782,
            19.22911
          ],
          [
            73.1221059,
            19.2292879
          ],
          [
            73.122008,
            19.2293936
          ],
          [
            73.1215037,
            19.229928
          ],
          [
            73.1210478,
            19.2304219
          ],
          [
            73.1208781,
            19.2306327
          ],
          [
            73.1206883,
            19.2308695
          ],
          [
            73.120508,
            19.2310278
          ],
          [
            73.1204174,
            19.2310797
          ],
          [
            73.1201576,
            19.2312215
          ],
          [
            73.1198582,
            19.2313322
          ],
          [
            73.1197886,
            19.2313738
          ],
          [
            73.1197155,
            19.2314199
          ],
          [
            73.1196163,
            19.2315656
          ],
          [
            73.1195871,
            19.2316887
          ]
        ]
      },
      "id": "way/8458446"
    },
    {
      "type": "Feature",
      "properties": {
        "@id": "way/30951200",
        "highway": "primary",
        "name": "Kalyan-Shil Road",
        "oneway": "yes"
      },
      "geometry": {
        "type": "LineString",
        "coordinates": [
          [
            73.1194899,
            19.232545
          ],
          [
            73.1194854,
            19.2326891
          ],
          [
            73.1194943,
            19.2327725
          ],
          [
            73.1194982,
            19.2327971
          ],
          [
            73.1195297,
            19.2328973
          ],
          [
            73.1195828,
            19.2330095
          ],
          [
            73.1196281,
            19.2330897
          ],
          [
            73.1197428,
            19.2331975
          ],
          [
            73.1199426,
            19.233381
          ]
        ]
      },
      "id": "way/30951200"
    },
    {
      "type": "Feature",
      "properties": {
        "@id": "way/31508459",
        "alt_name": "Kalyan Bhiwandi Road",
        "bridge": "yes",
        "highway": "trunk",
        "lanes": "3",
        "layer": "1",
        "name": "Chhatrapathi Shivaji Maharaj Bridge",
        "name:etymology:wikidata": "Q239505",
        "oneway": "yes",
        "ref": "NH61",
        "ref:old": "NH222"
      },
      "geometry": {
        "type": "LineString",
        "coordinates": [
          [
            73.1182595,
            19.2463946
          ],
          [
            73.1146488,
            19.2456698
          ]
        ]
      },
      "id": "way/31508459"
    },
    {
      "type": "Feature",
      "properties": {
        "@id": "way/68438842",
        "highway": "primary",
        "name": "Kalyan-Shil Road",
        "oneway": "yes"
      },
      "geometry": {
        "type": "LineString",
        "coordinates": [
          [
            73.1200061,
            19.2333209
          ],
          [
            73.1197507,
            19.2330758
          ],
          [
            73.1196973,
            19.2330129
          ],
          [
            73.1196269,
            19.2328873
          ],
          [
            73.1195859,
            19.2327599
          ],
          [
            73.1195801,
            19.2327173
          ],
          [
            73.1195911,
            19.2325478
          ]
        ]
      },
      "id": "way/68438842"
    },
    {
      "type": "Feature",
      "properties": {
        "@id": "way/171772359",
        "highway": "primary",
        "name": "Agra Road",
        "oneway": "yes"
      },
      "geometry": {
        "type": "LineString",
        "coordinates": [
          [
            73.1294381,
            19.2436093
          ],
          [
            73.1293828,
            19.2436755
          ],
          [
            73.129325,
            19.2437418
          ],
          [
            73.1292649,
            19.2438107
          ],
          [
            73.1286652,
            19.2442978
          ],
          [
            73.1283911,
            19.2445229
          ],
          [
            73.1282704,
            19.244622
          ],
          [
            73.128023,
            19.2448337
          ],
          [
            73.1278664,
            19.2449677
          ],
          [
            73.1277554,
            19.2450596
          ],
          [
            73.1274378,
            19.2453513
          ],
          [
            73.1271374,
            19.2456106
          ],
          [
            73.1268113,
            19.2458537
          ],
          [
            73.1263329,
            19.2461115
          ],
          [
            73.1255855,
            19.2462589
          ],
          [
            73.1246226,
            19.2463156
          ],
          [
            73.1233903,
            19.2463838
          ],
          [
            73.1233741,
            19.2463847
          ],
          [
            73.1232953,
            19.2463849
          ],
          [
            73.1212499,
            19.2466127
          ],
          [
            73.1205904,
            19.2466407
          ],
          [
            73.1202856,
            19.2466246
          ]
        ]
      },
      "id": "way/171772359"
    },
    {
      "type": "Feature",
      "properties": {
        "@id": "way/344092395",
        "highway": "primary",
        "lanes": "2",
        "name": "Kalyan - Shil Road",
        "name:mr": "कल्याण - शिळ रस्ता",
        "oneway": "yes"
      },
      "geometry": {
        "type": "LineString",
        "coordinates": [
          [
            73.0915969,
            19.1864963
          ],
          [
            73.0917065,
            19.1866824
          ],
          [
            73.0919326,
            19.1869962
          ],
          [
            73.0924116,
            19.1876832
          ],
          [
            73.0924566,
            19.1877409
          ],
          [
            73.0939599,
            19.1896666
          ],
          [
            73.0943805,
            19.1902206
          ],
          [
            73.0944992,
            19.1903855
          ],
          [
            73.094504,
            19.1903923
          ],
          [
            73.0956619,
            19.192027
          ],
          [
            73.0960449,
            19.1925537
          ],
          [
            73.0994555,
            19.1972731
          ],
          [
            73.0995011,
            19.1973308
          ],
          [
            73.0996599,
            19.1975319
          ],
          [
            73.0998746,
            19.1977564
          ],
          [
            73.1005571,
            19.1984769
          ],
          [
            73.1015021,
            19.1994745
          ],
          [
            73.1015546,
            19.1995272
          ],
          [
            73.1028804,
            19.2008336
          ],
          [
            73.1031796,
            19.2011401
          ],
          [
            73.1032715,
            19.2012322
          ],
          [
            73.1041644,
            19.2020998
          ],
          [
            73.1067169,
            19.2046886
          ],
          [
            73.1074288,
            19.2054095
          ],
          [
            73.1083525,
            19.2063328
          ],
          [
            73.1093652,
            19.207369
          ],
          [
            73.1107602,
            19.2087964
          ]
        ]
      },
      "id": "way/344092395"
    },
    {
      "type": "Feature",
      "properties": {
        "@id": "way/344092396",
        "highway": "primary",
        "lanes": "2",
        "name": "Kalyan - Shil Road",
        "name:mr": "कल्याण - शिळ रस्ता",
        "oneway": "yes"
      },
      "geometry": {
        "type": "LineString",
        "coordinates": [
          [
            73.1108679,
            19.2087813
          ],
          [
            73.110827,
            19.2087409
          ],
          [
            73.110738,
            19.2086522
          ],
          [
            73.1098498,
            19.2077674
          ],
          [
            73.1094134,
            19.2073266
          ],
          [
            73.1088394,
            19.2067183
          ],
          [
            73.1084055,
            19.2062812
          ],
          [
            73.1077363,
            19.2056144
          ],
          [
            73.1075756,
            19.2054543
          ],
          [
            73.1074836,
            19.2053626
          ],
          [
            73.1073749,
            19.2052521
          ],
          [
            73.1068043,
            19.204672
          ],
          [
            73.1067718,
            19.2046389
          ],
          [
            73.1063671,
            19.2042321
          ],
          [
            73.1050682,
            19.2029168
          ],
          [
            73.104315,
            19.2021103
          ],
          [
            73.1033213,
            19.2011835
          ],
          [
            73.1032296,
            19.2010949
          ],
          [
            73.1029361,
            19.2007846
          ],
          [
            73.1016371,
            19.1994494
          ],
          [
            73.1015834,
            19.1993942
          ],
          [
            73.1005668,
            19.198358
          ],
          [
            73.1003138,
            19.1981002
          ],
          [
            73.1002966,
            19.1980826
          ],
          [
            73.1002517,
            19.1980366
          ],
          [
            73.0999308,
            19.197708
          ],
          [
            73.0997188,
            19.1974862
          ],
          [
            73.0995483,
            19.1972705
          ],
          [
            73.0995175,
            19.1972314
          ],
          [
            73.0992229,
            19.196822
          ],
          [
            73.0990199,
            19.1965399
          ],
          [
            73.0984608,
            19.1957629
          ],
          [
            73.0976349,
            19.1946152
          ],
          [
            73.0961165,
            19.1925052
          ],
          [
            73.0957418,
            19.1919705
          ],
          [
            73.0945621,
            19.1903451
          ],
          [
            73.0944429,
            19.1901795
          ],
          [
            73.0940373,
            19.1896424
          ],
          [
            73.0936349,
            19.1891236
          ],
          [
            73.09251,
            19.1876733
          ]
        ]
      },
      "id": "way/344092396"
    },
    {
      "type": "Feature",
      "properties": {
        "@id": "way/344092424",
        "highway": "primary",
        "junction": "roundabout",
        "oneway": "yes"
      },
      "geometry": {
        "type": "LineString",
        "coordinates": [
          [
            73.1225748,
            19.223716
          ],
          [
            73.1225665,
            19.2237048
          ],
          [
            73.1225561,
            19.2236954
          ],
          [
            73.1225439,
            19.223688
          ],
          [
            73.1225304,
            19.2236831
          ],
          [
            73.1225162,
            19.2236807
          ],
          [
            73.1225017,
            19.223681
          ],
          [
            73.1224876,
            19.2236839
          ],
          [
            73.1224744,
            19.2236894
          ],
          [
            73.1224625,
            19.2236972
          ],
          [
            73.1224525,
            19.223707
          ],
          [
            73.1224447,
            19.2237185
          ],
          [
            73.1224395,
            19.2237312
          ],
          [
            73.1224369,
            19.2237447
          ],
          [
            73.1224372,
            19.2237583
          ],
          [
            73.1224403,
            19.2237717
          ],
          [
            73.1224461,
            19.2237842
          ],
          [
            73.1224544,
            19.2237953
          ],
          [
            73.1224649,
            19.2238048
          ],
          [
            73.122477,
            19.2238122
          ],
          [
            73.1224905,
            19.2238171
          ],
          [
            73.1225047,
            19.2238195
          ],
          [
            73.1225192,
            19.2238192
          ],
          [
            73.1225333,
            19.2238163
          ],
          [
            73.1225465,
            19.2238108
          ],
          [
            73.1225584,
            19.223803
          ],
          [
            73.1225684,
            19.2237932
          ],
          [
            73.1225762,
            19.2237817
          ],
          [
            73.1225824,
            19.2237635
          ],
          [
            73.122584,
            19.2237555
          ],
          [
            73.1225837,
            19.2237419
          ],
          [
            73.1225806,
            19.2237285
          ],
          [
            73.1225748,
            19.223716
          ]
        ]
      },
      "id": "way/344092424"
    },
    {
      "type": "Feature",
      "properties": {
        "@id": "way/684128286",
        "alt_name": "Kalyan Bypass",
        "bridge": "yes",
        "highway": "primary",
        "layer": "1",
        "name": "Kalyan Bypass Flyover",
        "oneway": "yes"
      },
      "geometry": {
        "type": "LineString",
        "coordinates": [
          [
            73.1183627,
            19.2439499
          ],
          [
            73.1182486,
            19.2438448
          ],
          [
            73.1180828,
            19.2437123
          ],
          [
            73.117936,
            19.2434654
          ],
          [
            73.1178659,
            19.2432606
          ],
          [
            73.1178786,
            19.2427547
          ],
          [
            73.1178776,
            19.2422904
          ],
          [
            73.1179031,
            19.2421037
          ],
          [
            73.1179286,
            19.2420073
          ],
          [
            73.1180945,
            19.2417001
          ],
          [
            73.1181646,
            19.2414773
          ],
          [
            73.1181838,
            19.2412363
          ],
          [
            73.1180439,
            19.2404413
          ],
          [
            73.1179146,
            19.2397337
          ],
          [
            73.1178791,
            19.2395158
          ],
          [
            73.1179031,
            19.2392005
          ],
          [
            73.1179099,
            19.2390652
          ]
        ]
      },
      "id": "way/684128286"
    },
    {
      "type": "Feature",
      "properties": {
        "@id": "way/684128358",
        "highway": "primary",
        "name": "Kalyan Bypass",
        "oneway": "yes"
      },
      "geometry": {
        "type": "LineString",
        "coordinates": [
          [
            73.1179421,
            19.2388873
          ],
          [
            73.1181262,
            19.2379283
          ],
          [
            73.1181519,
            19.2378092
          ],
          [
            73.1182151,
            19.2374935
          ],
          [
            73.1183688,
            19.236725
          ],
          [
            73.1184645,
            19.2364197
          ],
          [
            73.1185665,
            19.236213
          ],
          [
            73.1187653,
            19.235938
          ],
          [
            73.1188329,
            19.2358389
          ],
          [
            73.119411,
            19.2349903
          ],
          [
            73.1194821,
            19.2348707
          ],
          [
            73.1196093,
            19.2346567
          ],
          [
            73.1196456,
            19.2346021
          ]
        ]
      },
      "id": "way/684128358"
    },
    {
      "type": "Feature",
      "properties": {
        "@id": "way/684128645",
        "bridge": "yes",
        "highway": "primary",
        "layer": "1",
        "name": "Kalyan Bypass",
        "oneway": "yes"
      },
      "geometry": {
        "type": "LineString",
        "coordinates": [
          [
            73.1196456,
            19.2346021
          ],
          [
            73.1198543,
            19.2342898
          ]
        ]
      },
      "id": "way/684128645"
    },
    {
      "type": "Feature",
      "properties": {
        "@id": "way/684128646",
        "highway": "primary",
        "name": "Kalyan Bypass",
        "oneway": "yes"
      },
      "geometry": {
        "type": "LineString",
        "coordinates": [
          [
            73.1198543,
            19.2342898
          ],
          [
            73.1201399,
            19.2339219
          ],
          [
            73.1203277,
            19.2337077
          ],
          [
            73.1203842,
            19.2336412
          ]
        ]
      },
      "id": "way/684128646"
    },
    {
      "type": "Feature",
      "properties": {
        "@id": "way/684129014",
        "highway": "primary",
        "name": "Kalyan Bypass",
        "oneway": "yes"
      },
      "geometry": {
        "type": "LineString",
        "coordinates": [
          [
            73.1202857,
            19.2335681
          ],
          [
            73.1202389,
            19.2336316
          ],
          [
            73.1201063,
            19.2338227
          ],
          [
            73.1200073,
            19.2339761
          ],
          [
            73.1197946,
            19.2342313
          ]
        ]
      },
      "id": "way/684129014"
    },
    {
      "type": "Feature",
      "properties": {
        "@id": "way/684129015",
        "bridge": "yes",
        "highway": "primary",
        "layer": "1",
        "name": "Kalyan Bypass",
        "oneway": "yes"
      },
      "geometry": {
        "type": "LineString",
        "coordinates": [
          [
            73.1197946,
            19.2342313
          ],
          [
            73.1195721,
            19.2345433
          ]
        ]
      },
      "id": "way/684129015"
    },
    {
      "type": "Feature",
      "properties": {
        "@id": "way/684129016",
        "highway": "primary",
        "name": "Kalyan Bypass",
        "oneway": "yes"
      },
      "geometry": {
        "type": "LineString",
        "coordinates": [
          [
            73.1195721,
            19.2345433
          ],
          [
            73.1195398,
            19.2346122
          ],
          [
            73.1193993,
            19.2348261
          ],
          [
            73.1193364,
            19.2349217
          ],
          [
            73.1190949,
            19.2352762
          ],
          [
            73.1189092,
            19.2355488
          ],
          [
            73.1185628,
            19.2360373
          ],
          [
            73.1184772,
            19.2361579
          ],
          [
            73.1184149,
            19.2362504
          ],
          [
            73.1182763,
            19.2365974
          ],
          [
            73.1180107,
            19.2379003
          ],
          [
            73.1178381,
            19.2388733
          ]
        ]
      },
      "id": "way/684129016"
    },
    {
      "type": "Feature",
      "properties": {
        "@id": "way/684129591",
        "alt_name": "Kalyan Bypass",
        "bridge": "yes",
        "highway": "primary",
        "layer": "1",
        "name": "Kalyan Bypass Flyover",
        "oneway": "yes"
      },
      "geometry": {
        "type": "LineString",
        "coordinates": [
          [
            73.1178191,
            19.2390437
          ],
          [
            73.1178097,
            19.2392317
          ],
          [
            73.1177986,
            19.2395246
          ],
          [
            73.1179155,
            19.240184
          ],
          [
            73.1180649,
            19.2412214
          ],
          [
            73.1180704,
            19.2414423
          ],
          [
            73.1180105,
            19.2416425
          ],
          [
            73.1178202,
            19.242002
          ],
          [
            73.1177549,
            19.2423153
          ],
          [
            73.1177549,
            19.2430137
          ],
          [
            73.1177712,
            19.2433013
          ],
          [
            73.1178419,
            19.2435222
          ],
          [
            73.1179235,
            19.2436916
          ],
          [
            73.1180486,
            19.2438149
          ],
          [
            73.1182958,
            19.2440179
          ]
        ]
      },
      "id": "way/684129591"
    },
    {
      "type": "Feature",
      "properties": {
        "@id": "way/684129950",
        "highway": "primary",
        "name": "Kalyan Bypass",
        "oneway": "yes"
      },
      "geometry": {
        "type": "LineString",
        "coordinates": [
          [
            73.1184239,
            19.244123
          ],
          [
            73.118549,
            19.2443592
          ],
          [
            73.1186143,
            19.2445903
          ],
          [
            73.1186905,
            19.2448985
          ],
          [
            73.1187415,
            19.2450148
          ],
          [
            73.1189189,
            19.2452015
          ],
          [
            73.1191256,
            19.2453093
          ],
          [
            73.1192507,
            19.2454428
          ],
          [
            73.1194846,
            19.2456842
          ],
          [
            73.1199195,
            19.2464329
          ],
          [
            73.1200215,
            19.2466505
          ]
        ]
      },
      "id": "way/684129950"
    },
    {
      "type": "Feature",
      "properties": {
        "@id": "way/684130252",
        "highway": "primary",
        "name": "Kalyan Bypass",
        "oneway": "yes"
      },
      "geometry": {
        "type": "LineString",
        "coordinates": [
          [
            73.1201862,
            19.2465688
          ],
          [
            73.1198793,
            19.2461192
          ],
          [
            73.1194738,
            19.245525
          ],
          [
            73.1192943,
            19.2453401
          ],
          [
            73.1191147,
            19.2451963
          ],
          [
            73.1188809,
            19.2450628
          ],
          [
            73.1188275,
            19.2449776
          ],
          [
            73.1187177,
            19.2446725
          ],
          [
            73.1186415,
            19.2443336
          ],
          [
            73.1184768,
            19.244055
          ]
        ]
      },
      "id": "way/684130252"
    },
    {
      "type": "Feature",
      "properties": {
        "@id": "way/684130784",
        "highway": "trunk",
        "junction": "roundabout",
        "name": "Chatrapati Shivaji Maharaj Putala Chowk",
        "name:etymology:wikidata": "Q239505",
        "ref": "NH61"
      },
      "geometry": {
        "type": "LineString",
        "coordinates": [
          [
            73.1201366,
            19.2465689
          ],
          [
            73.1200895,
            19.2465838
          ],
          [
            73.1200498,
            19.246612
          ],
          [
            73.1200215,
            19.2466505
          ],
          [
            73.12001,
            19.2466818
          ],
          [
            73.1200063,
            19.2467146
          ],
          [
            73.1200144,
            19.2467609
          ],
          [
            73.1200376,
            19.2468023
          ],
          [
            73.120057,
            19.24682
          ],
          [
            73.1200734,
            19.2468348
          ],
          [
            73.1201183,
            19.246855
          ],
          [
            73.1201675,
            19.2468607
          ],
          [
            73.1202096,
            19.2468538
          ],
          [
            73.1202481,
            19.2468363
          ],
          [
            73.1202719,
            19.2468179
          ],
          [
            73.1202914,
            19.2467955
          ],
          [
            73.1203116,
            19.2467543
          ],
          [
            73.1203174,
            19.2467092
          ],
          [
            73.1203085,
            19.2466646
          ],
          [
            73.1202856,
            19.2466246
          ],
          [
            73.1202578,
            19.2465982
          ],
          [
            73.120224,
            19.2465792
          ],
          [
            73.1201862,
            19.2465688
          ],
          [
            73.1201366,
            19.2465689
          ]
        ]
      },
      "id": "way/684130784"
    },
    {
      "type": "Feature",
      "properties": {
        "@id": "way/684130785",
        "highway": "trunk",
        "lanes": "2",
        "name": "Kalyan-Bhiwandi Road",
        "oneway": "yes",
        "ref": "NH61",
        "ref:old": "NH222"
      },
      "geometry": {
        "type": "LineString",
        "coordinates": [
          [
            73.1200063,
            19.2467146
          ],
          [
            73.1195959,
            19.246686
          ],
          [
            73.1195578,
            19.2466777
          ],
          [
            73.1182595,
            19.2463946
          ]
        ]
      },
      "id": "way/684130785"
    },
    {
      "type": "Feature",
      "properties": {
        "@id": "way/684130786",
        "highway": "primary",
        "name": "Agra Road",
        "oneway": "yes"
      },
      "geometry": {
        "type": "LineString",
        "coordinates": [
          [
            73.1202914,
            19.2467955
          ],
          [
            73.1204885,
            19.2467357
          ],
          [
            73.1212543,
            19.2466977
          ],
          [
            73.1217706,
            19.2466333
          ],
          [
            73.1228194,
            19.2465485
          ],
          [
            73.1233027,
            19.2465098
          ],
          [
            73.1234239,
            19.2465012
          ],
          [
            73.1253205,
            19.2463884
          ],
          [
            73.1258644,
            19.2463371
          ],
          [
            73.1263636,
            19.2462257
          ],
          [
            73.126513,
            19.24615
          ],
          [
            73.1266912,
            19.2460598
          ],
          [
            73.1274619,
            19.2454035
          ],
          [
            73.1279442,
            19.2449928
          ],
          [
            73.1286875,
            19.2443599
          ],
          [
            73.1293583,
            19.2438664
          ]
        ]
      },
      "id": "way/684130786"
    },
    {
      "type": "Feature",
      "properties": {
        "@id": "way/684132691",
        "highway": "trunk",
        "lanes": "2",
        "name": "Kalyan Bhiwandi Road",
        "oneway": "yes",
        "ref": "NH61"
      },
      "geometry": {
        "type": "LineString",
        "coordinates": [
          [
            73.118204,
            19.2465715
          ],
          [
            73.1195574,
            19.2468028
          ],
          [
            73.1196185,
            19.2468109
          ],
          [
            73.1197328,
            19.2468488
          ],
          [
            73.1198465,
            19.2469068
          ],
          [
            73.1200085,
            19.2469832
          ],
          [
            73.120098,
            19.2470096
          ],
          [
            73.1203502,
            19.2470793
          ]
        ]
      },
      "id": "way/684132691"
    },
    {
      "type": "Feature",
      "properties": {
        "@id": "way/684132812",
        "highway": "trunk",
        "name": "Kalyan Bhiwandi Road",
        "oneway": "yes",
        "ref": "NH61"
      },
      "geometry": {
        "type": "LineString",
        "coordinates": [
          [
            73.1201675,
            19.2468607
          ],
          [
            73.1203502,
            19.2470793
          ],
          [
            73.1207576,
            19.2476681
          ]
        ]
      },
      "id": "way/684132812"
    },
    {
      "type": "Feature",
      "properties": {
        "@id": "way/684132813",
        "highway": "trunk",
        "name": "Kalyan Bhiwandi Road",
        "oneway": "yes",
        "ref": "NH61"
      },
      "geometry": {
        "type": "LineString",
        "coordinates": [
          [
            73.1221953,
            19.249595
          ],
          [
            73.1216332,
            19.2487289
          ],
          [
            73.1209596,
            19.2477718
          ]
        ]
      },
      "id": "way/684132813"
    },
    {
      "type": "Feature",
      "properties": {
        "@id": "way/784779021",
        "highway": "trunk",
        "lanes": "3",
        "name": "Kalyan Bhiwandi Road",
        "oneway": "yes",
        "ref": "NH61",
        "ref:old": "NH222"
      },
      "geometry": {
        "type": "LineString",
        "coordinates": [
          [
            73.1146488,
            19.2456698
          ],
          [
            73.1142169,
            19.245645
          ],
          [
            73.1138344,
            19.2456211
          ],
          [
            73.1133542,
            19.2456294
          ],
          [
            73.1131863,
            19.2456364
          ],
          [
            73.1129714,
            19.2456515
          ],
          [
            73.1120477,
            19.2457166
          ],
          [
            73.1120181,
            19.2457191
          ],
          [
            73.1118115,
            19.2457366
          ],
          [
            73.1108816,
            19.2458287
          ],
          [
            73.1105033,
            19.2458661
          ],
          [
            73.1102013,
            19.2459465
          ],
          [
            73.1098283,
            19.2460458
          ],
          [
            73.1095207,
            19.2461808
          ],
          [
            73.1093069,
            19.2462747
          ],
          [
            73.108656,
            19.2466458
          ],
          [
            73.1080071,
            19.2470474
          ],
          [
            73.1069476,
            19.2476672
          ],
          [
            73.1066976,
            19.2478283
          ],
          [
            73.1065974,
            19.2478936
          ],
          [
            73.1063055,
            19.2480761
          ],
          [
            73.105927,
            19.2483309
          ],
          [
            73.1053889,
            19.2486818
          ],
          [
            73.1050631,
            19.2489363
          ],
          [
            73.1047171,
            19.249168
          ],
          [
            73.1044944,
            19.2493001
          ],
          [
            73.1041305,
            19.2495161
          ],
          [
            73.1035045,
            19.2498327
          ],
          [
            73.1028652,
            19.2501561
          ],
          [
            73.1027287,
            19.2502364
          ],
          [
            73.1024424,
            19.2504048
          ],
          [
            73.1015406,
            19.2509352
          ],
          [
            73.1014384,
            19.2510027
          ],
          [
            73.1008595,
            19.2513463
          ],
          [
            73.1007828,
            19.2513917
          ],
          [
            73.100536,
            19.2515382
          ],
          [
            73.0995163,
            19.2522015
          ],
          [
            73.0993889,
            19.252287
          ],
          [
            73.0991838,
            19.2524145
          ],
          [
            73.0988216,
            19.2527308
          ],
          [
            73.098707,
            19.2528416
          ]
        ]
      },
      "id": "way/784779021"
    },
    {
      "type": "Feature",
      "properties": {
        "@id": "way/784779023",
        "highway": "trunk",
        "lanes": "3",
        "name": "Kalyan Road",
        "oneway": "yes",
        "ref": "NH61",
        "ref:old": "NH222"
      },
      "geometry": {
        "type": "LineString",
        "coordinates": [
          [
            73.1009193,
            19.2514212
          ],
          [
            73.1013398,
            19.2511392
          ],
          [
            73.101524,
            19.2510195
          ],
          [
            73.1015591,
            19.2510021
          ],
          [
            73.1022319,
            19.2506206
          ],
          [
            73.1025271,
            19.2504574
          ],
          [
            73.102688,
            19.2503685
          ],
          [
            73.1028927,
            19.2502554
          ],
          [
            73.1030805,
            19.2501499
          ],
          [
            73.103805,
            19.2497648
          ],
          [
            73.1041794,
            19.2495658
          ],
          [
            73.1046259,
            19.2493002
          ],
          [
            73.1047247,
            19.2492414
          ],
          [
            73.1050591,
            19.2490173
          ],
          [
            73.1054179,
            19.2487504
          ],
          [
            73.1055621,
            19.2486432
          ],
          [
            73.1061159,
            19.2482817
          ],
          [
            73.1066337,
            19.2479467
          ],
          [
            73.1069677,
            19.2477307
          ],
          [
            73.1073938,
            19.2474936
          ],
          [
            73.1074302,
            19.2474733
          ],
          [
            73.1078138,
            19.2472598
          ],
          [
            73.1081002,
            19.2470793
          ],
          [
            73.1087391,
            19.2466825
          ],
          [
            73.1089008,
            19.2465877
          ],
          [
            73.109358,
            19.2463198
          ],
          [
            73.1098491,
            19.2461141
          ],
          [
            73.1104419,
            19.2459564
          ],
          [
            73.1108994,
            19.2458942
          ],
          [
            73.1120529,
            19.2457903
          ],
          [
            73.1131892,
            19.2457067
          ],
          [
            73.1133582,
            19.2457125
          ],
          [
            73.1138528,
            19.2457211
          ],
          [
            73.1146046,
            19.2458326
          ]
        ]
      },
      "id": "way/784779023"
    },
    {
      "type": "Feature",
      "properties": {
        "@id": "way/787902484",
        "highway": "primary",
        "junction": "roundabout",
        "source": "digitalglobe"
      },
      "geometry": {
        "type": "LineString",
        "coordinates": [
          [
            73.1236633,
            19.2274419
          ],
          [
            73.1237043,
            19.227444
          ],
          [
            73.1237423,
            19.2274291
          ],
          [
            73.1237696,
            19.2274002
          ],
          [
            73.123781,
            19.2273629
          ],
          [
            73.1237775,
            19.2273435
          ],
          [
            73.123774,
            19.2273246
          ],
          [
            73.1237502,
            19.227293
          ],
          [
            73.1237158,
            19.2272751
          ],
          [
            73.1236732,
            19.2272721
          ],
          [
            73.1236352,
            19.227287
          ],
          [
            73.1236079,
            19.2273159
          ],
          [
            73.1235965,
            19.2273532
          ],
          [
            73.1236035,
            19.2273915
          ],
          [
            73.1236273,
            19.2274231
          ],
          [
            73.1236441,
            19.2274319
          ],
          [
            73.1236633,
            19.2274419
          ]
        ]
      },
      "id": "way/787902484"
    },
    {
      "type": "Feature",
      "properties": {
        "@id": "way/787902485",
        "highway": "primary",
        "name": "Kalyan - Shil Road",
        "name:mr": "कल्याण - शिळ रस्ता",
        "oneway": "yes"
      },
      "geometry": {
        "type": "LineString",
        "coordinates": [
          [
            73.1225333,
            19.2238163
          ],
          [
            73.122749,
            19.2240403
          ],
          [
            73.1228609,
            19.2241436
          ],
          [
            73.1230259,
            19.2243373
          ],
          [
            73.123215,
            19.2247362
          ],
          [
            73.1232794,
            19.2248825
          ],
          [
            73.1233538,
            19.2250578
          ],
          [
            73.1234872,
            19.2255086
          ],
          [
            73.1235717,
            19.2259341
          ],
          [
            73.1236502,
            19.2262798
          ],
          [
            73.1236656,
            19.2263672
          ],
          [
            73.1237487,
            19.2268218
          ],
          [
            73.1237635,
            19.2269472
          ],
          [
            73.1237487,
            19.2270333
          ],
          [
            73.1237003,
            19.2272088
          ],
          [
            73.1236732,
            19.2272721
          ]
        ]
      },
      "id": "way/787902485"
    },
    {
      "type": "Feature",
      "properties": {
        "@id": "way/791291376",
        "highway": "primary",
        "name": "Kalyan - Shil Road",
        "name:mr": "कल्याण - शिळ रस्ता",
        "oneway": "yes",
        "source": "digitalglobe"
      },
      "geometry": {
        "type": "LineString",
        "coordinates": [
          [
            73.1237502,
            19.227293
          ],
          [
            73.1238292,
            19.22707
          ],
          [
            73.1238493,
            19.2269826
          ],
          [
            73.123844,
            19.2268902
          ],
          [
            73.1237561,
            19.226333
          ],
          [
            73.1237172,
            19.2260816
          ],
          [
            73.1236812,
            19.2258997
          ],
          [
            73.1235771,
            19.2254675
          ],
          [
            73.1235366,
            19.2253482
          ],
          [
            73.1234199,
            19.2250041
          ],
          [
            73.1234068,
            19.2249654
          ],
          [
            73.1233585,
            19.2248394
          ],
          [
            73.1232937,
            19.224673
          ],
          [
            73.1231023,
            19.2243056
          ],
          [
            73.122941,
            19.2240912
          ],
          [
            73.1228425,
            19.223981
          ],
          [
            73.1225824,
            19.2237635
          ]
        ]
      },
      "id": "way/791291376"
    },
    {
      "type": "Feature",
      "properties": {
        "@id": "way/791295140",
        "highway": "primary",
        "name": "Kalyan-Shil Road",
        "name:mr": "कल्याण - शिळ रस्ता",
        "oneway": "yes",
        "source": "digitalglobe"
      },
      "geometry": {
        "type": "LineString",
        "coordinates": [
          [
            73.1197068,
            19.2316752
          ],
          [
            73.1197235,
            19.2316115
          ],
          [
            73.1198038,
            19.2315006
          ],
          [
            73.1199037,
            19.2314298
          ],
          [
            73.1202927,
            19.2312665
          ],
          [
            73.120556,
            19.2311241
          ],
          [
            73.1206481,
            19.2310537
          ],
          [
            73.1207405,
            19.230961
          ],
          [
            73.1209338,
            19.2307378
          ],
          [
            73.1210893,
            19.2305523
          ],
          [
            73.1216338,
            19.2299622
          ],
          [
            73.1221113,
            19.2294443
          ],
          [
            73.1222467,
            19.2293056
          ],
          [
            73.1223755,
            19.2291543
          ],
          [
            73.1224877,
            19.2290253
          ],
          [
            73.1225793,
            19.22892
          ],
          [
            73.1227858,
            19.2287086
          ],
          [
            73.1229018,
            19.2285664
          ],
          [
            73.1229194,
            19.2285448
          ],
          [
            73.1230729,
            19.2283568
          ],
          [
            73.1231412,
            19.228273
          ],
          [
            73.1232343,
            19.2281301
          ],
          [
            73.1232912,
            19.228035
          ],
          [
            73.1235563,
            19.227636
          ],
          [
            73.1236267,
            19.2275474
          ],
          [
            73.1237043,
            19.227444
          ]
        ]
      },
      "id": "way/791295140"
    },
    {
      "type": "Feature",
      "properties": {
        "@id": "way/1002552012",
        "alt_name": "Kalyan Bhiwandi Road",
        "bridge": "yes",
        "highway": "trunk",
        "lanes": "4",
        "layer": "1",
        "name": "Chhatrapathi Shivaji Maharaj Bridge",
        "name:etymology:wikidata": "Q239505",
        "old_ref": "NH222",
        "oneway": "yes",
        "ref": "NH61"
      },
      "geometry": {
        "type": "LineString",
        "coordinates": [
          [
            73.1146046,
            19.2458326
          ],
          [
            73.118204,
            19.2465715
          ]
        ]
      },
      "id": "way/1002552012"
    },
    {
      "type": "Feature",
      "properties": {
        "@id": "way/1120389383",
        "highway": "primary",
        "name": "Agra Rd",
        "oneway": "yes"
      },
      "geometry": {
        "type": "LineString",
        "coordinates": [
          [
            73.1203842,
            19.2336412
          ],
          [
            73.1203395,
            19.2336055
          ],
          [
            73.1202857,
            19.2335681
          ],
          [
            73.1200061,
            19.2333209
          ]
        ]
      },
      "id": "way/1120389383"
    },
    {
      "type": "Feature",
      "properties": {
        "@id": "way/1120389384",
        "highway": "primary",
        "name": "Agra Rd",
        "oneway": "yes",
        "source": "digitalglobe"
      },
      "geometry": {
        "type": "LineString",
        "coordinates": [
          [
            73.1199426,
            19.233381
          ],
          [
            73.1202389,
            19.2336316
          ],
          [
            73.1203277,
            19.2337077
          ]
        ]
      },
      "id": "way/1120389384"
    },
    {
      "type": "Feature",
      "properties": {
        "@id": "way/1120394513",
        "bridge": "yes",
        "highway": "primary",
        "layer": "1",
        "name": "Kalyan-Shil Road",
        "oneway": "yes"
      },
      "geometry": {
        "type": "LineString",
        "coordinates": [
          [
            73.1195911,
            19.2325478
          ],
          [
            73.1196602,
            19.2319065
          ]
        ]
      },
      "id": "way/1120394513"
    },
    {
      "type": "Feature",
      "properties": {
        "@id": "way/1120394514",
        "bridge": "yes",
        "highway": "primary",
        "layer": "1",
        "name": "Kalyan-Shil Road",
        "oneway": "yes"
      },
      "geometry": {
        "type": "LineString",
        "coordinates": [
          [
            73.1195659,
            19.2319005
          ],
          [
            73.1194899,
            19.232545
          ]
        ]
      },
      "id": "way/1120394514"
    },
    {
      "type": "Feature",
      "properties": {
        "@id": "way/1153960478",
        "highway": "primary",
        "name": "Kalyan-Shil Road",
        "name:mr": "कल्याण - शिळ रस्ता",
        "oneway": "yes",
        "source": "digitalglobe"
      },
      "geometry": {
        "type": "LineString",
        "coordinates": [
          [
            73.1196602,
            19.2319065
          ],
          [
            73.1196919,
            19.2317322
          ]
        ]
      },
      "id": "way/1153960478"
    },
    {
      "type": "Feature",
      "properties": {
        "@id": "way/1153960479",
        "highway": "primary",
        "name": "Kalyan-Shil Road",
        "name:mr": "कल्याण - शिळ रस्ता",
        "oneway": "yes",
        "source": "digitalglobe"
      },
      "geometry": {
        "type": "LineString",
        "coordinates": [
          [
            73.1196919,
            19.2317322
          ],
          [
            73.1197068,
            19.2316752
          ]
        ]
      },
      "id": "way/1153960479"
    },
    {
      "type": "Feature",
      "properties": {
        "@id": "way/1153960480",
        "highway": "primary",
        "name": "Kalyan-Shil Road",
        "name:mr": "कल्याण - शिळ रस्ता",
        "oneway": "yes"
      },
      "geometry": {
        "type": "LineString",
        "coordinates": [
          [
            73.1195827,
            19.2317266
          ],
          [
            73.1195659,
            19.2319005
          ]
        ]
      },
      "id": "way/1153960480"
    },
    {
      "type": "Feature",
      "properties": {
        "@id": "way/1153960481",
        "highway": "primary",
        "name": "Kalyan-Shil Road",
        "name:mr": "कल्याण - शिळ रस्ता",
        "oneway": "yes"
      },
      "geometry": {
        "type": "LineString",
        "coordinates": [
          [
            73.1195871,
            19.2316887
          ],
          [
            73.1195827,
            19.2317266
          ]
        ]
      },
      "id": "way/1153960481"
    },
    {
      "type": "Feature",
      "properties": {
        "@id": "way/1228693855",
        "highway": "primary",
        "lanes": "2",
        "name": "Kalyan - Shil Road",
        "name:mr": "कल्याण - शिळ रस्ता",
        "oneway": "yes"
      },
      "geometry": {
        "type": "LineString",
        "coordinates": [
          [
            73.0893567,
            19.1816897
          ],
          [
            73.0895037,
            19.1819686
          ],
          [
            73.0896075,
            19.1821798
          ],
          [
            73.089685,
            19.1824049
          ],
          [
            73.0898842,
            19.1830483
          ],
          [
            73.0899423,
            19.1832331
          ],
          [
            73.0899996,
            19.1834013
          ],
          [
            73.0900549,
            19.1835815
          ],
          [
            73.0900821,
            19.1836432
          ],
          [
            73.0902402,
            19.18398
          ],
          [
            73.0904729,
            19.1843858
          ],
          [
            73.0907521,
            19.1848807
          ],
          [
            73.0908562,
            19.1850724
          ],
          [
            73.0909651,
            19.1852952
          ],
          [
            73.0910682,
            19.1855288
          ]
        ]
      },
      "id": "way/1228693855"
    },
    {
      "type": "Feature",
      "properties": {
        "@id": "way/1228693856",
        "highway": "primary",
        "lanes": "2",
        "name": "Kalyan - Shil Road",
        "name:mr": "कल्याण - शिळ रस्ता",
        "oneway": "yes"
      },
      "geometry": {
        "type": "LineString",
        "coordinates": [
          [
            73.1107602,
            19.2087964
          ],
          [
            73.1108058,
            19.2088402
          ],
          [
            73.1116702,
            19.2096706
          ],
          [
            73.1117185,
            19.209717
          ],
          [
            73.1126723,
            19.210679
          ],
          [
            73.1130057,
            19.2110062
          ],
          [
            73.1131318,
            19.2111301
          ],
          [
            73.11324,
            19.2112363
          ],
          [
            73.1133592,
            19.2113533
          ],
          [
            73.1133893,
            19.2113828
          ],
          [
            73.1144015,
            19.2123792
          ],
          [
            73.1147421,
            19.212755
          ],
          [
            73.1150831,
            19.2131296
          ],
          [
            73.1168593,
            19.2154047
          ],
          [
            73.1178021,
            19.2166408
          ],
          [
            73.1182086,
            19.2171329
          ],
          [
            73.1184443,
            19.2174229
          ],
          [
            73.119284,
            19.2183805
          ],
          [
            73.1198049,
            19.2189744
          ],
          [
            73.1198688,
            19.2190465
          ]
        ]
      },
      "id": "way/1228693856"
    },
    {
      "type": "Feature",
      "properties": {
        "@id": "way/1228693862",
        "highway": "primary",
        "lanes": "2",
        "name": "Kalyan - Shil Road",
        "name:mr": "कल्याण - शिळ रस्ता",
        "oneway": "yes"
      },
      "geometry": {
        "type": "LineString",
        "coordinates": [
          [
            73.1205722,
            19.219885
          ],
          [
            73.1205155,
            19.2197969
          ],
          [
            73.1202234,
            19.2193629
          ],
          [
            73.1201378,
            19.2192357
          ],
          [
            73.1200425,
            19.2191188
          ],
          [
            73.1199492,
            19.2190156
          ],
          [
            73.1199364,
            19.2190007
          ],
          [
            73.1198734,
            19.2189254
          ],
          [
            73.1195095,
            19.2185182
          ],
          [
            73.1194706,
            19.2184744
          ],
          [
            73.1193438,
            19.218335
          ],
          [
            73.1188317,
            19.2177504
          ],
          [
            73.1187558,
            19.2176637
          ],
          [
            73.1185502,
            19.217429
          ],
          [
            73.1185024,
            19.2173744
          ],
          [
            73.1182737,
            19.2170919
          ],
          [
            73.1178786,
            19.2166023
          ],
          [
            73.1175159,
            19.2161358
          ],
          [
            73.1169217,
            19.2153617
          ],
          [
            73.1163717,
            19.2146579
          ],
          [
            73.1159516,
            19.2141152
          ],
          [
            73.1156018,
            19.2136632
          ],
          [
            73.115143,
            19.2130853
          ],
          [
            73.1150631,
            19.2129919
          ],
          [
            73.1148139,
            19.2126918
          ],
          [
            73.1144571,
            19.2123302
          ],
          [
            73.1134461,
            19.2113319
          ]
        ]
      },
      "id": "way/1228693862"
    },
    {
      "type": "Feature",
      "properties": {
        "@id": "way/1228693863",
        "highway": "primary",
        "lanes": "2",
        "name": "Kalyan - Shil Road",
        "name:mr": "कल्याण - शिळ रस्ता",
        "oneway": "yes"
      },
      "geometry": {
        "type": "LineString",
        "coordinates": [
          [
            73.0911345,
            19.1854933
          ],
          [
            73.0910348,
            19.185269
          ],
          [
            73.0909239,
            19.1850438
          ],
          [
            73.0908164,
            19.1848469
          ],
          [
            73.0906029,
            19.1844647
          ],
          [
            73.0905403,
            19.1843526
          ],
          [
            73.0903086,
            19.1839483
          ],
          [
            73.0902438,
            19.1838104
          ],
          [
            73.0901533,
            19.1836175
          ],
          [
            73.090015,
            19.183212
          ],
          [
            73.0897577,
            19.1823837
          ],
          [
            73.0896784,
            19.1821534
          ],
          [
            73.0896097,
            19.1820135
          ],
          [
            73.0895722,
            19.1819372
          ],
          [
            73.0894281,
            19.1816552
          ]
        ]
      },
      "id": "way/1228693863"
    },
    {
      "type": "Feature",
      "properties": {
        "@id": "way/1228693864",
        "highway": "primary",
        "lanes": "2",
        "name": "Kalyan - Shil Road",
        "name:mr": "कल्याण - शिळ रस्ता",
        "oneway": "yes"
      },
      "geometry": {
        "type": "LineString",
        "coordinates": [
          [
            73.0912805,
            19.1859563
          ],
          [
            73.0915194,
            19.1863626
          ],
          [
            73.0915442,
            19.1864047
          ],
          [
            73.0915649,
            19.1864401
          ],
          [
            73.0915969,
            19.1864963
          ]
        ]
      },
      "id": "way/1228693864"
    },
    {
      "type": "Feature",
      "properties": {
        "@id": "way/1271688963",
        "highway": "trunk",
        "oneway": "yes"
      },
      "geometry": {
        "type": "LineString",
        "coordinates": [
          [
            73.1195574,
            19.2468028
          ],
          [
            73.1198108,
            19.2468217
          ],
          [
            73.120057,
            19.24682
          ]
        ]
      },
      "id": "way/1271688963"
    },
    {
      "type": "Feature",
      "properties": {
        "@id": "way/1271688970",
        "highway": "trunk",
        "name": "Kalyan Bhiwandi Road",
        "oneway": "yes",
        "ref": "NH61"
      },
      "geometry": {
        "type": "LineString",
        "coordinates": [
          [
            73.1208557,
            19.2478097
          ],
          [
            73.1212938,
            19.248445
          ]
        ]
      },
      "id": "way/1271688970"
    },
    {
      "type": "Feature",
      "properties": {
        "@id": "way/1271688971",
        "bridge": "yes",
        "highway": "trunk",
        "layer": "1",
        "name": "Kalyan Bhiwandi Road",
        "oneway": "yes",
        "ref": "NH61"
      },
      "geometry": {
        "type": "LineString",
        "coordinates": [
          [
            73.1207576,
            19.2476681
          ],
          [
            73.1208557,
            19.2478097
          ]
        ]
      },
      "id": "way/1271688971"
    },
    {
      "type": "Feature",
      "properties": {
        "@id": "way/1271688972",
        "highway": "trunk",
        "name": "Kalyan Bhiwandi Road",
        "oneway": "yes",
        "ref": "NH61"
      },
      "geometry": {
        "type": "LineString",
        "coordinates": [
          [
            73.1208511,
            19.2476223
          ],
          [
            73.1202481,
            19.2468363
          ]
        ]
      },
      "id": "way/1271688972"
    },
    {
      "type": "Feature",
      "properties": {
        "@id": "way/1271688973",
        "bridge": "yes",
        "highway": "trunk",
        "layer": "1",
        "name": "Kalyan Bhiwandi Road",
        "oneway": "yes",
        "ref": "NH61"
      },
      "geometry": {
        "type": "LineString",
        "coordinates": [
          [
            73.1209596,
            19.2477718
          ],
          [
            73.1208511,
            19.2476223
          ]
        ]
      },
      "id": "way/1271688973"
    },
    {
      "type": "Feature",
      "properties": {
        "@id": "way/1311747383",
        "highway": "primary",
        "lanes": "2",
        "name": "Kalyan - Shil Road",
        "name:mr": "कल्याण - शिळ रस्ता",
        "oneway": "yes"
      },
      "geometry": {
        "type": "LineString",
        "coordinates": [
          [
            73.0913488,
            19.1859247
          ],
          [
            73.0911345,
            19.1854933
          ]
        ]
      },
      "id": "way/1311747383"
    },
    {
      "type": "Feature",
      "properties": {
        "@id": "way/1311747384",
        "highway": "primary",
        "lanes": "2",
        "name": "Kalyan - Shil Road",
        "name:mr": "कल्याण - शिळ रस्ता",
        "oneway": "yes"
      },
      "geometry": {
        "type": "LineString",
        "coordinates": [
          [
            73.0910682,
            19.1855288
          ],
          [
            73.0912805,
            19.1859563
          ]
        ]
      },
      "id": "way/1311747384"
    },
    {
      "type": "Feature",
      "properties": {
        "@id": "way/1314358022",
        "alt_name": "Kalyan Bypass",
        "highway": "primary",
        "name": "Kalyan Bypass Flyover",
        "oneway": "yes"
      },
      "geometry": {
        "type": "LineString",
        "coordinates": [
          [
            73.1184768,
            19.244055
          ],
          [
            73.1183627,
            19.2439499
          ]
        ]
      },
      "id": "way/1314358022"
    },
    {
      "type": "Feature",
      "properties": {
        "@id": "way/1314358023",
        "alt_name": "Kalyan Bypass",
        "highway": "primary",
        "name": "Kalyan Bypass Flyover",
        "oneway": "yes"
      },
      "geometry": {
        "type": "LineString",
        "coordinates": [
          [
            73.1182958,
            19.2440179
          ],
          [
            73.1184239,
            19.244123
          ]
        ]
      },
      "id": "way/1314358023"
    },
    {
      "type": "Feature",
      "properties": {
        "@id": "way/1314358024",
        "alt_name": "Kalyan Bypass",
        "highway": "primary",
        "name": "Kalyan Bypass Flyover",
        "oneway": "yes"
      },
      "geometry": {
        "type": "LineString",
        "coordinates": [
          [
            73.1179099,
            19.2390652
          ],
          [
            73.1179421,
            19.2388873
          ]
        ]
      },
      "id": "way/1314358024"
    },
    {
      "type": "Feature",
      "properties": {
        "@id": "way/1314358025",
        "alt_name": "Kalyan Bypass",
        "highway": "primary",
        "name": "Kalyan Bypass Flyover",
        "oneway": "yes"
      },
      "geometry": {
        "type": "LineString",
        "coordinates": [
          [
            73.1178381,
            19.2388733
          ],
          [
            73.1178191,
            19.2390437
          ]
        ]
      },
      "id": "way/1314358025"
    },
    {
      "type": "Feature",
      "properties": {
        "@id": "way/1329295463",
        "highway": "trunk",
        "name": "Kalyan-Murbad Road",
        "oneway": "yes",
        "ref": "NH61",
        "ref:old": "NH222"
      },
      "geometry": {
        "type": "LineString",
        "coordinates": [
          [
            73.1212938,
            19.248445
          ],
          [
            73.1215375,
            19.2487696
          ],
          [
            73.1220305,
            19.2495116
          ],
          [
            73.1221469,
            19.2496867
          ],
          [
            73.1226705,
            19.2505987
          ]
        ]
      },
      "id": "way/1329295463"
    },
    {
      "type": "Feature",
      "properties": {
        "@id": "way/1336453490",
        "highway": "primary",
        "lanes": "2",
        "name": "Kalyan - Shil Road",
        "name:mr": "कल्याण - शिळ रस्ता",
        "oneway": "yes"
      },
      "geometry": {
        "type": "LineString",
        "coordinates": [
          [
            73.1127309,
            19.2106226
          ],
          [
            73.1118973,
            19.2097964
          ],
          [
            73.1117761,
            19.2096699
          ],
          [
            73.1117272,
            19.2096228
          ],
          [
            73.1114303,
            19.2093366
          ],
          [
            73.1108679,
            19.2087813
          ]
        ]
      },
      "id": "way/1336453490"
    },
    {
      "type": "Feature",
      "properties": {
        "@id": "way/1353925459",
        "highway": "primary",
        "lanes": "2",
        "name": "Kalyan - Shil Road",
        "name:mr": "कल्याण - शिळ रस्ता",
        "oneway": "yes"
      },
      "geometry": {
        "type": "LineString",
        "coordinates": [
          [
            73.09251,
            19.1876733
          ],
          [
            73.0924698,
            19.1876222
          ],
          [
            73.0919949,
            19.1869551
          ],
          [
            73.091957,
            19.1869025
          ],
          [
            73.0918001,
            19.1866846
          ],
          [
            73.0917714,
            19.1866447
          ],
          [
            73.0916116,
            19.1863713
          ],
          [
            73.0913488,
            19.1859247
          ]
        ]
      },
      "id": "way/1353925459"
    },
    {
      "type": "Feature",
      "properties": {
        "@id": "way/1455088353",
        "highway": "primary",
        "lanes": "2",
        "name": "Kalyan - Shil Road",
        "name:mr": "कल्याण - शिळ रस्ता",
        "oneway": "yes"
      },
      "geometry": {
        "type": "LineString",
        "coordinates": [
          [
            73.1225017,
            19.223681
          ],
          [
            73.12246,
            19.2236607
          ],
          [
            73.1224254,
            19.2236402
          ],
          [
            73.122385,
            19.2236069
          ],
          [
            73.1217836,
            19.2229492
          ],
          [
            73.1216959,
            19.222834
          ],
          [
            73.1216439,
            19.2227261
          ],
          [
            73.1216254,
            19.2226563
          ],
          [
            73.121617,
            19.2226248
          ],
          [
            73.1215685,
            19.2221657
          ],
          [
            73.1215439,
            19.221933
          ]
        ]
      },
      "id": "way/1455088353"
    },
    {
      "type": "Feature",
      "properties": {
        "@id": "way/1501079229",
        "highway": "primary",
        "lanes": "2",
        "name": "Kalyan - Shil Road",
        "name:mr": "कल्याण - शिळ रस्ता",
        "oneway": "yes"
      },
      "geometry": {
        "type": "LineString",
        "coordinates": [
          [
            73.1215439,
            19.221933
          ],
          [
            73.1214534,
            19.2210767
          ],
          [
            73.1214178,
            19.2209612
          ],
          [
            73.1213511,
            19.2208457
          ],
          [
            73.1213212,
            19.220804
          ]
        ]
      },
      "id": "way/1501079229"
    },
    {
      "type": "Feature",
      "properties": {
        "@id": "way/1501079231",
        "highway": "primary",
        "lanes": "2",
        "name": "Kalyan - Shil Road",
        "name:mr": "कल्याण - शिळ रस्ता",
        "oneway": "yes"
      },
      "geometry": {
        "type": "LineString",
        "coordinates": [
          [
            73.1198688,
            19.2190465
          ],
          [
            73.1199809,
            19.2191613
          ],
          [
            73.1200742,
            19.2192751
          ],
          [
            73.1204508,
            19.2198346
          ],
          [
            73.1205254,
            19.2199585
          ],
          [
            73.1206265,
            19.2201262
          ],
          [
            73.1207151,
            19.2202525
          ],
          [
            73.1208387,
            19.2204075
          ],
          [
            73.1209943,
            19.2205684
          ],
          [
            73.1212508,
            19.2208463
          ],
          [
            73.1212849,
            19.2208912
          ],
          [
            73.1213471,
            19.2209887
          ],
          [
            73.1213784,
            19.2210904
          ],
          [
            73.121472,
            19.2219413
          ],
          [
            73.1215417,
            19.2226355
          ],
          [
            73.1215711,
            19.2227486
          ],
          [
            73.1216302,
            19.2228711
          ],
          [
            73.1216416,
            19.222891
          ],
          [
            73.1217244,
            19.2229944
          ],
          [
            73.1218813,
            19.223172
          ],
          [
            73.1222275,
            19.2235446
          ],
          [
            73.1223274,
            19.2236539
          ],
          [
            73.1224403,
            19.2237717
          ]
        ]
      },
      "id": "way/1501079231"
    },
    {
      "type": "Feature",
      "properties": {
        "@id": "way/1501634974",
        "highway": "primary",
        "lanes": "2",
        "name": "Kalyan - Shil Road",
        "name:mr": "कल्याण - शिळ रस्ता",
        "oneway": "yes"
      },
      "geometry": {
        "type": "LineString",
        "coordinates": [
          [
            73.1213212,
            19.220804
          ],
          [
            73.1210511,
            19.2205205
          ],
          [
            73.1209245,
            19.2203897
          ],
          [
            73.1208973,
            19.2203615
          ],
          [
            73.1207783,
            19.2202124
          ],
          [
            73.1206939,
            19.2200927
          ],
          [
            73.1205722,
            19.219885
          ]
        ]
      },
      "id": "way/1501634974"
    },
    {
      "type": "Feature",
      "properties": {
        "@id": "way/1502544607",
        "highway": "primary",
        "lanes": "2",
        "name": "Kalyan - Shil Road",
        "name:mr": "कल्याण - शिळ रस्ता",
        "oneway": "yes"
      },
      "geometry": {
        "type": "LineString",
        "coordinates": [
          [
            73.1134461,
            19.2113319
          ],
          [
            73.1131904,
            19.2110789
          ],
          [
            73.1127309,
            19.2106226
          ]
        ]
      },
      "id": "way/1502544607"
    }
  ]
}