{
  "type": "FeatureCollection",
  "generator": "overpass-turbo",
  "copyright": "The data included in this document is from www.openstreetmap.org. The data is made available under ODbL.",
  "timestamp": "2026-07-12T04:37:04Z",
  "features": [
    {
      "type": "Feature",
      "properties": {
        "@id": "way/100259800",
        "leisure": "park",
        "name": "Nehru Maidan",
        "name:etymology:wikidata": "Q1047"
      },
      "geometry": {
        "type": "Polygon",
        "coordinates": [
          [
            [
              73.0931246,
              19.2198067
            ],
            [
              73.0942028,
              19.2188499
            ],
            [
              73.0945128,
              19.2191792
            ],
            [
              73.0942026,
              19.2196061
            ],
            [
              73.0941285,
              19.2198709
            ],
            [
              73.093735,
              19.219832
            ],
            [
              73.0931246,
              19.2198067
            ]
          ]
        ]
      },
      "id": "way/100259800"
    },
    {
      "type": "Feature",
      "properties": {
        "@id": "way/204348787",
        "leisure": "park"
      },
      "geometry": {
        "type": "Polygon",
        "coordinates": [
          [
            [
              73.0869222,
              19.213627
            ],
            [
              73.0876087,
              19.2138186
            ],
            [
              73.0879636,
              19.2139176
            ],
            [
              73.0884628,
              19.2140569
            ],
            [
              73.0883355,
              19.2141921
            ],
            [
              73.0875397,
              19.2139637
            ],
            [
              73.087476,
              19.2140358
            ],
            [
              73.0868394,
              19.2138645
            ],
            [
              73.0869222,
              19.213627
            ]
          ]
        ]
      },
      "id": "way/204348787"
    },
    {
      "type": "Feature",
      "properties": {
        "@id": "way/236068447",
        "leisure": "park",
        "name": "Subhash Maidan"
      },
      "geometry": {
        "type": "Polygon",
        "coordinates": [
          [
            [
              73.1270921,
              19.2416087
            ],
            [
              73.1262497,
              19.2416682
            ],
            [
              73.1259804,
              19.2409973
            ],
            [
              73.1262268,
              19.240624
            ],
            [
              73.1276021,
              19.2403372
            ],
            [
              73.1280205,
              19.2406564
            ],
            [
              73.1270921,
              19.2416087
            ]
          ]
        ]
      },
      "id": "way/236068447"
    },
    {
      "type": "Feature",
      "properties": {
        "@id": "way/543773378",
        "leisure": "park"
      },
      "geometry": {
        "type": "Polygon",
        "coordinates": [
          [
            [
              73.0803126,
              19.2240102
            ],
            [
              73.0800772,
              19.2235899
            ],
            [
              73.0801352,
              19.223548
            ],
            [
              73.0807815,
              19.2234321
            ],
            [
              73.0809845,
              19.2234096
            ],
            [
              73.0803126,
              19.2240102
            ]
          ]
        ]
      },
      "id": "way/543773378"
    },
    {
      "type": "Feature",
      "properties": {
        "@id": "way/544195124",
        "addr:city": "Dombivli",
        "addr:housenumber": "meenatai thakery udyan",
        "addr:postcode": "421202",
        "addr:street": "Kopar Road",
        "leisure": "park",
        "name": "Meenatai Thakrey Udhyan",
        "name:etymology:wikidata": "Q22081679",
        "opening_hours": "Mo-Su 08:00-20:00"
      },
      "geometry": {
        "type": "Polygon",
        "coordinates": [
          [
            [
              73.0820234,
              19.2163396
            ],
            [
              73.0824505,
              19.2158417
            ],
            [
              73.0827714,
              19.216081
            ],
            [
              73.0823422,
              19.2165345
            ],
            [
              73.0820234,
              19.2163396
            ]
          ]
        ]
      },
      "id": "way/544195124"
    },
    {
      "type": "Feature",
      "properties": {
        "@id": "way/552449824",
        "leisure": "park",
        "name": "Bhagshala maidan"
      },
      "geometry": {
        "type": "Polygon",
        "coordinates": [
          [
            [
              73.0879768,
              19.2224672
            ],
            [
              73.0879098,
              19.2223952
            ],
            [
              73.0878092,
              19.2221707
            ],
            [
              73.0878214,
              19.2219549
            ],
            [
              73.0879179,
              19.2217726
            ],
            [
              73.0887419,
              19.2223981
            ],
            [
              73.0885346,
              19.2225132
            ],
            [
              73.0883883,
              19.2225708
            ],
            [
              73.0881932,
              19.2225737
            ],
            [
              73.0880652,
              19.2225305
            ],
            [
              73.0879768,
              19.2224672
            ]
          ]
        ]
      },
      "id": "way/552449824"
    },
    {
      "type": "Feature",
      "properties": {
        "@id": "way/552449825",
        "leisure": "park",
        "name": "Mahatma Gandhi Udyan",
        "name:etymology:wikidata": "Q1001"
      },
      "geometry": {
        "type": "Polygon",
        "coordinates": [
          [
            [
              73.0902488,
              19.2212312
            ],
            [
              73.0904129,
              19.2210424
            ],
            [
              73.0908024,
              19.2212892
            ],
            [
              73.0905,
              19.2212747
            ],
            [
              73.0903616,
              19.2212554
            ],
            [
              73.0902488,
              19.2212312
            ]
          ]
        ]
      },
      "id": "way/552449825"
    },
    {
      "type": "Feature",
      "properties": {
        "@id": "way/552449827",
        "leisure": "park",
        "name": "Dombivli East Pasrk"
      },
      "geometry": {
        "type": "Polygon",
        "coordinates": [
          [
            [
              73.0898557,
              19.2201569
            ],
            [
              73.0899434,
              19.2200489
            ],
            [
              73.0911828,
              19.220953
            ],
            [
              73.0913371,
              19.221066
            ],
            [
              73.0912307,
              19.2212166
            ],
            [
              73.0898557,
              19.2201569
            ]
          ]
        ]
      },
      "id": "way/552449827"
    },
    {
      "type": "Feature",
      "properties": {
        "@id": "way/552449828",
        "leisure": "park"
      },
      "geometry": {
        "type": "Polygon",
        "coordinates": [
          [
            [
              73.0913371,
              19.2212694
            ],
            [
              73.0913956,
              19.2211865
            ],
            [
              73.0914727,
              19.2212342
            ],
            [
              73.0915179,
              19.2212267
            ],
            [
              73.0917067,
              19.22141
            ],
            [
              73.0916243,
              19.2214879
            ],
            [
              73.0913371,
              19.2212694
            ]
          ]
        ]
      },
      "id": "way/552449828"
    },
    {
      "type": "Feature",
      "properties": {
        "@id": "way/552449829",
        "leisure": "park"
      },
      "geometry": {
        "type": "Polygon",
        "coordinates": [
          [
            [
              73.0904891,
              19.2231185
            ],
            [
              73.0912401,
              19.2222372
            ],
            [
              73.0913796,
              19.22246
            ],
            [
              73.0915727,
              19.2226424
            ],
            [
              73.0909397,
              19.2234123
            ],
            [
              73.0904891,
              19.2231185
            ]
          ]
        ]
      },
      "id": "way/552449829"
    },
    {
      "type": "Feature",
      "properties": {
        "@id": "way/552449830",
        "leisure": "park",
        "name": "Nana Nani Park"
      },
      "geometry": {
        "type": "Polygon",
        "coordinates": [
          [
            [
              73.0928784,
              19.2116221
            ],
            [
              73.0929866,
              19.2113442
            ],
            [
              73.0934322,
              19.2114668
            ],
            [
              73.0933154,
              19.21181
            ],
            [
              73.0929779,
              19.2116997
            ],
            [
              73.0928784,
              19.2116221
            ]
          ]
        ]
      },
      "id": "way/552449830"
    },
    {
      "type": "Feature",
      "properties": {
        "@id": "way/552449831",
        "leisure": "park",
        "name": "Sawarkar Garden",
        "name:mr": "सावरकर उद्यान"
      },
      "geometry": {
        "type": "Polygon",
        "coordinates": [
          [
            [
              73.0884429,
              19.2115317
            ],
            [
              73.0885044,
              19.2112096
            ],
            [
              73.0886274,
              19.2111779
            ],
            [
              73.0888288,
              19.2112254
            ],
            [
              73.0889015,
              19.2113099
            ],
            [
              73.0888399,
              19.2116268
            ],
            [
              73.0884429,
              19.2115317
            ]
          ]
        ]
      },
      "id": "way/552449831"
    },
    {
      "type": "Feature",
      "properties": {
        "@id": "way/552449832",
        "leisure": "park",
        "name": "Traffic Gardeb Park"
      },
      "geometry": {
        "type": "Polygon",
        "coordinates": [
          [
            [
              73.0895181,
              19.212358
            ],
            [
              73.0895458,
              19.2121159
            ],
            [
              73.090114,
              19.2122162
            ],
            [
              73.090084,
              19.2123144
            ],
            [
              73.0896243,
              19.2123733
            ],
            [
              73.0895181,
              19.212358
            ]
          ]
        ]
      },
      "id": "way/552449832"
    },
    {
      "type": "Feature",
      "properties": {
        "@id": "way/552449833",
        "leisure": "park",
        "name": "Rambhau Mhalagi Udyan"
      },
      "geometry": {
        "type": "Polygon",
        "coordinates": [
          [
            [
              73.0962784,
              19.2200318
            ],
            [
              73.0967005,
              19.220044
            ],
            [
              73.0966779,
              19.2202448
            ],
            [
              73.0962591,
              19.2202326
            ],
            [
              73.0962784,
              19.2200318
            ]
          ]
        ]
      },
      "id": "way/552449833"
    },
    {
      "type": "Feature",
      "properties": {
        "@id": "way/552449834",
        "leisure": "park",
        "name": "Phadake Maindan"
      },
      "geometry": {
        "type": "Polygon",
        "coordinates": [
          [
            [
              73.1222411,
              19.2495188
            ],
            [
              73.1219441,
              19.2490879
            ],
            [
              73.122357,
              19.2484314
            ],
            [
              73.1237768,
              19.2481236
            ],
            [
              73.1238492,
              19.248575
            ],
            [
              73.1222411,
              19.2495188
            ]
          ]
        ]
      },
      "id": "way/552449834"
    },
    {
      "type": "Feature",
      "properties": {
        "@id": "way/682717213",
        "addr:city": "Dombivli (East)",
        "addr:housenumber": "Behnabai Garden",
        "addr:postcode": "421201",
        "addr:street": "Sunil Nagar",
        "leisure": "park",
        "name": "Bahinabai Garden",
        "name:mr": "बहिणाबाई उद्यान",
        "opening_hours": "Mo-Su 06:00-20:00",
        "operator": "KDMC"
      },
      "geometry": {
        "type": "Polygon",
        "coordinates": [
          [
            [
              73.0868243,
              19.2053608
            ],
            [
              73.0867614,
              19.2052992
            ],
            [
              73.0867544,
              19.2052265
            ],
            [
              73.0868383,
              19.2051803
            ],
            [
              73.0869525,
              19.2051935
            ],
            [
              73.0870877,
              19.2051957
            ],
            [
              73.0871576,
              19.2052001
            ],
            [
              73.0871902,
              19.2052705
            ],
            [
              73.0871506,
              19.2053168
            ],
            [
              73.0870783,
              19.2053168
            ],
            [
              73.0869921,
              19.2053432
            ],
            [
              73.0869222,
              19.205363
            ],
            [
              73.0868243,
              19.2053608
            ]
          ]
        ]
      },
      "id": "way/682717213"
    },
    {
      "type": "Feature",
      "properties": {
        "@id": "way/745967242",
        "leisure": "park",
        "name": "Shivaji"
      },
      "geometry": {
        "type": "Polygon",
        "coordinates": [
          [
            [
              73.0788041,
              19.2285693
            ],
            [
              73.0787035,
              19.2282287
            ],
            [
              73.0793645,
              19.2280224
            ],
            [
              73.0794128,
              19.2283465
            ],
            [
              73.0788041,
              19.2285693
            ]
          ]
        ]
      },
      "id": "way/745967242"
    },
    {
      "type": "Feature",
      "properties": {
        "@id": "way/746955455",
        "addr:city": "Thankurli(E),Dist Thane",
        "addr:postcode": "421201",
        "addr:street": "MIDC Road",
        "description": "Small park for Elderly and Women",
        "leisure": "park",
        "name": "Aaji Ajoba Udyan",
        "opening_hours": "24/7"
      },
      "geometry": {
        "type": "Polygon",
        "coordinates": [
          [
            [
              73.1005037,
              19.2206555
            ],
            [
              73.1006001,
              19.220468
            ],
            [
              73.1008711,
              19.2205947
            ],
            [
              73.1007933,
              19.2207492
            ],
            [
              73.1005037,
              19.2206555
            ]
          ]
        ]
      },
      "id": "way/746955455"
    },
    {
      "type": "Feature",
      "properties": {
        "@id": "way/749128727",
        "leisure": "park",
        "name": "Rotary Park",
        "opening_hours": "24/7",
        "operator": "Rotary Club"
      },
      "geometry": {
        "type": "Polygon",
        "coordinates": [
          [
            [
              73.1029874,
              19.2138891
            ],
            [
              73.1030932,
              19.212968
            ],
            [
              73.1032015,
              19.212778
            ],
            [
              73.1037139,
              19.2122967
            ],
            [
              73.1052181,
              19.2132985
            ],
            [
              73.1044546,
              19.2134692
            ],
            [
              73.1036951,
              19.2136613
            ],
            [
              73.1034184,
              19.2137417
            ],
            [
              73.1029874,
              19.2138891
            ]
          ]
        ]
      },
      "id": "way/749128727"
    },
    {
      "type": "Feature",
      "properties": {
        "@id": "way/749129038",
        "leisure": "park",
        "name": "Saro Plaza Garden area",
        "opening_hours": "24/7",
        "operator": "Saro Plaza Co-op Society"
      },
      "geometry": {
        "type": "Polygon",
        "coordinates": [
          [
            [
              73.1006209,
              19.2211428
            ],
            [
              73.1002976,
              19.2210162
            ],
            [
              73.1003339,
              19.2209503
            ],
            [
              73.100653,
              19.2210618
            ],
            [
              73.1006209,
              19.2211428
            ]
          ]
        ]
      },
      "id": "way/749129038"
    },
    {
      "type": "Feature",
      "properties": {
        "@id": "way/755251590",
        "leisure": "park",
        "name": "Public park"
      },
      "geometry": {
        "type": "Polygon",
        "coordinates": [
          [
            [
              73.0729212,
              19.219886
            ],
            [
              73.0729419,
              19.2198224
            ],
            [
              73.0729477,
              19.2198041
            ],
            [
              73.0729482,
              19.2197851
            ],
            [
              73.0729903,
              19.2196595
            ],
            [
              73.0734273,
              19.219765
            ],
            [
              73.0734964,
              19.2197842
            ],
            [
              73.0736225,
              19.2198476
            ],
            [
              73.0737729,
              19.2199666
            ],
            [
              73.0737851,
              19.2200107
            ],
            [
              73.0734294,
              19.220099
            ],
            [
              73.0732586,
              19.2200395
            ],
            [
              73.0729212,
              19.219886
            ]
          ]
        ]
      },
      "id": "way/755251590"
    },
    {
      "type": "Feature",
      "properties": {
        "@id": "way/930917968",
        "leisure": "park",
        "name": "Nana Phadke Krida Sankul"
      },
      "geometry": {
        "type": "Polygon",
        "coordinates": [
          [
            [
              73.1238347,
              19.2474349
            ],
            [
              73.1237737,
              19.2472123
            ],
            [
              73.1240156,
              19.2471739
            ],
            [
              73.1240177,
              19.2471931
            ],
            [
              73.1241152,
              19.2471739
            ],
            [
              73.1241335,
              19.2471912
            ],
            [
              73.124164,
              19.2472084
            ],
            [
              73.1241945,
              19.2473812
            ],
            [
              73.1238347,
              19.2474349
            ]
          ]
        ]
      },
      "id": "way/930917968"
    },
    {
      "type": "Feature",
      "properties": {
        "@id": "way/945059829",
        "leisure": "park"
      },
      "geometry": {
        "type": "Polygon",
        "coordinates": [
          [
            [
              73.0751355,
              19.1873351
            ],
            [
              73.0750854,
              19.1868986
            ],
            [
              73.0754855,
              19.1868576
            ],
            [
              73.0755356,
              19.1872942
            ],
            [
              73.0751355,
              19.1873351
            ]
          ]
        ]
      },
      "id": "way/945059829"
    },
    {
      "type": "Feature",
      "properties": {
        "@id": "way/945059830",
        "leisure": "park"
      },
      "geometry": {
        "type": "Polygon",
        "coordinates": [
          [
            [
              73.0750091,
              19.1862442
            ],
            [
              73.074959,
              19.1858077
            ],
            [
              73.0753591,
              19.1857667
            ],
            [
              73.0754092,
              19.1862033
            ],
            [
              73.0750091,
              19.1862442
            ]
          ]
        ]
      },
      "id": "way/945059830"
    },
    {
      "type": "Feature",
      "properties": {
        "@id": "way/945059857",
        "leisure": "park"
      },
      "geometry": {
        "type": "Polygon",
        "coordinates": [
          [
            [
              73.0876429,
              19.1834416
            ],
            [
              73.0870478,
              19.1834527
            ],
            [
              73.0867484,
              19.1840698
            ],
            [
              73.0863595,
              19.1839081
            ],
            [
              73.085955,
              19.1836914
            ],
            [
              73.0848427,
              19.1832653
            ],
            [
              73.0847572,
              19.183247
            ],
            [
              73.0845199,
              19.1832984
            ],
            [
              73.0843605,
              19.1832653
            ],
            [
              73.0839949,
              19.1830266
            ],
            [
              73.0836877,
              19.182909
            ],
            [
              73.0833337,
              19.1828503
            ],
            [
              73.0833143,
              19.1827768
            ],
            [
              73.0833687,
              19.1827254
            ],
            [
              73.0836915,
              19.1827805
            ],
            [
              73.0840066,
              19.1826997
            ],
            [
              73.0844849,
              19.1826593
            ],
            [
              73.0845705,
              19.1826923
            ],
            [
              73.0846755,
              19.1827621
            ],
            [
              73.0879462,
              19.1824499
            ],
            [
              73.0879346,
              19.1829641
            ],
            [
              73.0878101,
              19.1830045
            ],
            [
              73.0876895,
              19.1831331
            ],
            [
              73.0876507,
              19.1832947
            ],
            [
              73.0876429,
              19.1834416
            ]
          ]
        ]
      },
      "id": "way/945059857"
    },
    {
      "type": "Feature",
      "properties": {
        "@id": "way/945059858",
        "leisure": "park"
      },
      "geometry": {
        "type": "Polygon",
        "coordinates": [
          [
            [
              73.0870158,
              19.1849834
            ],
            [
              73.0872108,
              19.1845419
            ],
            [
              73.0876089,
              19.1846988
            ],
            [
              73.0874138,
              19.1851403
            ],
            [
              73.0870158,
              19.1849834
            ]
          ]
        ]
      },
      "id": "way/945059858"
    },
    {
      "type": "Feature",
      "properties": {
        "@id": "way/945059859",
        "leisure": "park"
      },
      "geometry": {
        "type": "Polygon",
        "coordinates": [
          [
            [
              73.0864363,
              19.1847594
            ],
            [
              73.0866314,
              19.1843179
            ],
            [
              73.0870294,
              19.1844747
            ],
            [
              73.0868343,
              19.1849162
            ],
            [
              73.0864363,
              19.1847594
            ]
          ]
        ]
      },
      "id": "way/945059859"
    },
    {
      "type": "Feature",
      "properties": {
        "@id": "way/945059860",
        "leisure": "park"
      },
      "geometry": {
        "type": "Polygon",
        "coordinates": [
          [
            [
              73.0858869,
              19.1845252
            ],
            [
              73.086082,
              19.1840837
            ],
            [
              73.08648,
              19.1842406
            ],
            [
              73.086285,
              19.1846821
            ],
            [
              73.0858869,
              19.1845252
            ]
          ]
        ]
      },
      "id": "way/945059860"
    },
    {
      "type": "Feature",
      "properties": {
        "@id": "way/945059861",
        "leisure": "park"
      },
      "geometry": {
        "type": "Polygon",
        "coordinates": [
          [
            [
              73.0833318,
              19.1835408
            ],
            [
              73.0830374,
              19.1834251
            ],
            [
              73.0830435,
              19.1831846
            ],
            [
              73.0830868,
              19.1830725
            ],
            [
              73.0834715,
              19.1832238
            ],
            [
              73.0833318,
              19.1835408
            ]
          ]
        ]
      },
      "id": "way/945059861"
    },
    {
      "type": "Feature",
      "properties": {
        "@id": "way/945059862",
        "leisure": "park"
      },
      "geometry": {
        "type": "Polygon",
        "coordinates": [
          [
            [
              73.0840668,
              19.18382
            ],
            [
              73.0841922,
              19.1835355
            ],
            [
              73.0845841,
              19.1836896
            ],
            [
              73.0844587,
              19.183974
            ],
            [
              73.0840668,
              19.18382
            ]
          ]
        ]
      },
      "id": "way/945059862"
    },
    {
      "type": "Feature",
      "properties": {
        "@id": "way/945059900",
        "leisure": "park"
      },
      "geometry": {
        "type": "Polygon",
        "coordinates": [
          [
            [
              73.0846366,
              19.1842277
            ],
            [
              73.0848856,
              19.1836627
            ],
            [
              73.0858461,
              19.1840404
            ],
            [
              73.0855971,
              19.1846053
            ],
            [
              73.0846366,
              19.1842277
            ]
          ]
        ]
      },
      "id": "way/945059900"
    },
    {
      "type": "Feature",
      "properties": {
        "@id": "way/957445440",
        "leisure": "park"
      },
      "geometry": {
        "type": "Polygon",
        "coordinates": [
          [
            [
              73.118037,
              19.2045866
            ],
            [
              73.1173879,
              19.2047006
            ],
            [
              73.117227,
              19.203776
            ],
            [
              73.1172189,
              19.2037039
            ],
            [
              73.1172377,
              19.2036291
            ],
            [
              73.1172886,
              19.2035911
            ],
            [
              73.1173316,
              19.2035734
            ],
            [
              73.1173919,
              19.2035785
            ],
            [
              73.1174308,
              19.2036114
            ],
            [
              73.118037,
              19.2045866
            ]
          ]
        ]
      },
      "id": "way/957445440"
    },
    {
      "type": "Feature",
      "properties": {
        "@id": "way/957445441",
        "leisure": "park"
      },
      "geometry": {
        "type": "Polygon",
        "coordinates": [
          [
            [
              73.1191065,
              19.2042147
            ],
            [
              73.1185968,
              19.204306
            ],
            [
              73.1185721,
              19.2042991
            ],
            [
              73.1185516,
              19.2042867
            ],
            [
              73.118533,
              19.2042682
            ],
            [
              73.1182183,
              19.2037025
            ],
            [
              73.1182174,
              19.2036823
            ],
            [
              73.1182264,
              19.2036591
            ],
            [
              73.1182436,
              19.203641
            ],
            [
              73.1186707,
              19.2034333
            ],
            [
              73.1187049,
              19.2034423
            ],
            [
              73.1191158,
              19.2041754
            ],
            [
              73.1191166,
              19.2041997
            ],
            [
              73.1191065,
              19.2042147
            ]
          ]
        ]
      },
      "id": "way/957445441"
    },
    {
      "type": "Feature",
      "properties": {
        "@id": "way/957445442",
        "leisure": "park"
      },
      "geometry": {
        "type": "Polygon",
        "coordinates": [
          [
            [
              73.119971,
              19.2021553
            ],
            [
              73.120113,
              19.2021018
            ],
            [
              73.1202579,
              19.2020612
            ],
            [
              73.1204791,
              19.2020473
            ],
            [
              73.1207111,
              19.2020587
            ],
            [
              73.1211323,
              19.202236
            ],
            [
              73.1211416,
              19.2022468
            ],
            [
              73.1211463,
              19.2022607
            ],
            [
              73.121146,
              19.2022727
            ],
            [
              73.121143,
              19.2022841
            ],
            [
              73.1208506,
              19.202742
            ],
            [
              73.1208305,
              19.2027559
            ],
            [
              73.1208077,
              19.2027667
            ],
            [
              73.1207829,
              19.2027635
            ],
            [
              73.1207594,
              19.2027578
            ],
            [
              73.1199736,
              19.2022966
            ],
            [
              73.1199462,
              19.2022809
            ],
            [
              73.1199275,
              19.2022563
            ],
            [
              73.1199205,
              19.2022268
            ],
            [
              73.1199264,
              19.202197
            ],
            [
              73.1199442,
              19.2021719
            ],
            [
              73.119971,
              19.2021553
            ]
          ]
        ]
      },
      "id": "way/957445442"
    },
    {
      "type": "Feature",
      "properties": {
        "@id": "way/957445444",
        "leisure": "park"
      },
      "geometry": {
        "type": "Polygon",
        "coordinates": [
          [
            [
              73.1205045,
              19.2031388
            ],
            [
              73.1205126,
              19.2031717
            ],
            [
              73.1204952,
              19.203197
            ],
            [
              73.1202631,
              19.2034769
            ],
            [
              73.1198206,
              19.2037859
            ],
            [
              73.1197971,
              19.2037916
            ],
            [
              73.1197743,
              19.2037834
            ],
            [
              73.1196891,
              19.2036694
            ],
            [
              73.1195803,
              19.2034228
            ],
            [
              73.1195731,
              19.2034003
            ],
            [
              73.1195738,
              19.2033813
            ],
            [
              73.1195781,
              19.203357
            ],
            [
              73.1196787,
              19.2029509
            ],
            [
              73.1197336,
              19.2027294
            ],
            [
              73.1197441,
              19.2027069
            ],
            [
              73.1197619,
              19.2027018
            ],
            [
              73.1197857,
              19.2027058
            ],
            [
              73.1205045,
              19.2031388
            ]
          ]
        ]
      },
      "id": "way/957445444"
    },
    {
      "type": "Feature",
      "properties": {
        "@id": "way/1025097967",
        "addr:city": "Dombivali",
        "addr:housenumber": "P-9,MIDC phase 1",
        "addr:postcode": "421201",
        "addr:street": "Patharli Road",
        "club": "sport",
        "leisure": "park",
        "name": "DOMBIVALI GYMKHANA SPORTS COMPLEX"
      },
      "geometry": {
        "type": "Polygon",
        "coordinates": [
          [
            [
              73.0994851,
              19.2150151
            ],
            [
              73.0992907,
              19.2142823
            ],
            [
              73.0991772,
              19.2138219
            ],
            [
              73.0996241,
              19.2134991
            ],
            [
              73.0998802,
              19.2134339
            ],
            [
              73.1001892,
              19.213503
            ],
            [
              73.1006034,
              19.2147296
            ],
            [
              73.0997796,
              19.2149399
            ],
            [
              73.0994851,
              19.2150151
            ]
          ]
        ]
      },
      "id": "way/1025097967"
    },
    {
      "type": "Feature",
      "properties": {
        "@id": "way/1131874547",
        "leisure": "park",
        "name": "Netaji Subhashchandra Bose Garden",
        "name:etymology:wikidata": "Q2153",
        "opening_hours": "24/7"
      },
      "geometry": {
        "type": "Polygon",
        "coordinates": [
          [
            [
              73.1001827,
              19.2229116
            ],
            [
              73.1002364,
              19.222785
            ],
            [
              73.1002659,
              19.2226837
            ],
            [
              73.1004509,
              19.2227115
            ],
            [
              73.1004451,
              19.2228026
            ],
            [
              73.1004375,
              19.2229217
            ],
            [
              73.1001827,
              19.2229116
            ]
          ]
        ]
      },
      "id": "way/1131874547"
    },
    {
      "type": "Feature",
      "properties": {
        "@id": "way/1131903686",
        "leisure": "park",
        "name": "JP Sports Turf",
        "opening_hours": "sunrise-sunset",
        "wheelchair": "yes"
      },
      "geometry": {
        "type": "Polygon",
        "coordinates": [
          [
            [
              73.1042746,
              19.2214551
            ],
            [
              73.1043375,
              19.2212375
            ],
            [
              73.1047076,
              19.2213135
            ],
            [
              73.1046379,
              19.2215313
            ],
            [
              73.1042746,
              19.2214551
            ]
          ]
        ]
      },
      "id": "way/1131903686"
    },
    {
      "type": "Feature",
      "properties": {
        "@id": "way/1162013298",
        "leisure": "park"
      },
      "geometry": {
        "type": "Polygon",
        "coordinates": [
          [
            [
              73.0913937,
              19.2040918
            ],
            [
              73.0915707,
              19.2039466
            ],
            [
              73.0916315,
              19.2039567
            ],
            [
              73.0916798,
              19.2040209
            ],
            [
              73.0918711,
              19.2045055
            ],
            [
              73.0918229,
              19.2045376
            ],
            [
              73.0913937,
              19.2040918
            ]
          ]
        ]
      },
      "id": "way/1162013298"
    },
    {
      "type": "Feature",
      "properties": {
        "@id": "way/1342074215",
        "leisure": "park"
      },
      "geometry": {
        "type": "Polygon",
        "coordinates": [
          [
            [
              73.1042664,
              19.221435
            ],
            [
              73.1043375,
              19.2212375
            ],
            [
              73.1047076,
              19.2213135
            ],
            [
              73.1046379,
              19.2215313
            ],
            [
              73.1042664,
              19.221435
            ]
          ]
        ]
      },
      "id": "way/1342074215"
    },
    {
      "type": "Feature",
      "properties": {
        "@id": "way/1428975522",
        "leisure": "park",
        "name": "Kalyan Dombivli Mahanagarpalika Ashokji Singhal Park",
        "name:etymology:wikidata": "Q16885699",
        "opening_hours": "Mo-Su 05:00-09:00 18:00-21:00",
        "operator": "Kalyan Dombivli Mahanagarpalika",
        "operator:type": "government"
      },
      "geometry": {
        "type": "Polygon",
        "coordinates": [
          [
            [
              73.1161723,
              19.2314293
            ],
            [
              73.1162087,
              19.2314013
            ],
            [
              73.1166112,
              19.231294
            ],
            [
              73.1166478,
              19.2316668
            ],
            [
              73.1162868,
              19.2315653
            ],
            [
              73.116159,
              19.2315104
            ],
            [
              73.1161482,
              19.2314672
            ],
            [
              73.1161723,
              19.2314293
            ]
          ]
        ]
      },
      "id": "way/1428975522"
    },
    {
      "type": "Feature",
      "properties": {
        "@id": "node/2206292932",
        "addr:district": "Thane",
        "addr:full": "Shastrinagar General Hospital, Nr Water Tank, Shastrinagar",
        "addr:postcode": "421202",
        "addr:state": "Maharashtra",
        "addr:street": "Shastri Nagar, Dombivli West Dombivli, Maharashtra 421202",
        "addr:subdistrict": "Kalyan",
        "description": "Sub District Hospital",
        "designation": "KDMC",
        "emergency": "yes",
        "leisure": "park",
        "name": "KDMC HOSP 2 Shastrinagar General Hospital Dombivli",
        "operator": "Municipal Hospital",
        "source": "OpenGovernmentData"
      },
      "geometry": {
        "type": "Point",
        "coordinates": [
          73.0828414,
          19.2163997
        ]
      },
      "id": "node/2206292932"
    },
    {
      "type": "Feature",
      "properties": {
        "@id": "node/5260564226",
        "leisure": "park",
        "name": "Meenatai Thakarey Udhyan"
      },
      "geometry": {
        "type": "Point",
        "coordinates": [
          73.0824505,
          19.216162
        ]
      },
      "id": "node/5260564226"
    },
    {
      "type": "Feature",
      "properties": {
        "@id": "node/9308326095",
        "addr:city": "dombivli",
        "addr:housenumber": "12",
        "addr:postcode": "421201",
        "addr:street": "Manpada Road",
        "description": "park",
        "leisure": "park",
        "name": "nana nani park",
        "opening_hours": "Mo-Fr 09:00-17:00",
        "operator": "nana"
      },
      "geometry": {
        "type": "Point",
        "coordinates": [
          73.09096,
          19.2112802
        ]
      },
      "id": "node/9308326095"
    },
    {
      "type": "Feature",
      "properties": {
        "@id": "node/12185920276",
        "access": "yes",
        "addr:city": "Kalyan-Dombivli",
        "addr:district": "THANE",
        "addr:housenumber": "rotary park",
        "addr:postcode": "421201",
        "addr:street": "nanasaheb dharmadikari marg",
        "description": "park",
        "leisure": "park",
        "name": "rotary park",
        "opening_hours": "24/7",
        "operator": "rotary",
        "operator:type": "public"
      },
      "geometry": {
        "type": "Point",
        "coordinates": [
          73.103121,
          19.2246909
        ]
      },
      "id": "node/12185920276"
    },
    {
      "type": "Feature",
      "properties": {
        "@id": "node/12185920278",
        "leisure": "park",
        "loc_name": "ROTARY PARK",
        "name": "ROTARY PARK",
        "opening_hours": "Mo-Fr 10:00-20:00,Sat-su 12:00-15:00"
      },
      "geometry": {
        "type": "Point",
        "coordinates": [
          73.1037473,
          19.2131075
        ]
      },
      "id": "node/12185920278"
    },
    {
      "type": "Feature",
      "properties": {
        "@id": "node/12395567502",
        "addr:city": "Dombivali",
        "addr:district": "THANE",
        "addr:postcode": "421201",
        "addr:street": "NAVPADA RD",
        "alt_name": "CHILDRENS PARK",
        "dog": "yes",
        "leisure": "park",
        "name": "NETAJI SUBHASH CHANDRA BOSE PARK",
        "opening_hours": "Mo-Sa 08:00-12:00,16:00-22:00 PH OFF",
        "smoking": "no",
        "source": "LOCAL KNOWLEDGE"
      },
      "geometry": {
        "type": "Point",
        "coordinates": [
          73.1003631,
          19.2228081
        ]
      },
      "id": "node/12395567502"
    },
    {
      "type": "Feature",
      "properties": {
        "@id": "node/12415396507",
        "access": "yes",
        "addr:city": "Kalyan-Dombivli",
        "addr:district": "THANE",
        "addr:postcode": "421201",
        "addr:street": "90ft Road",
        "leisure": "park",
        "loc_name": "JK SPORTS TURF",
        "name": "JK SPORTS PARK",
        "opening_hours": "Mo-Su 07:00-21:00"
      },
      "geometry": {
        "type": "Point",
        "coordinates": [
          73.1044822,
          19.2213972
        ]
      },
      "id": "node/12415396507"
    },
    {
      "type": "Feature",
      "properties": {
        "@id": "node/12519614765",
        "leisure": "park",
        "name": "big park"
      },
      "geometry": {
        "type": "Point",
        "coordinates": [
          73.0923898,
          19.2063976
        ]
      },
      "id": "node/12519614765"
    },
    {
      "type": "Feature",
      "properties": {
        "@id": "node/13664329601",
        "leisure": "park",
        "name": "Garden"
      },
      "geometry": {
        "type": "Point",
        "coordinates": [
          73.0805256,
          19.2237205
        ]
      },
      "id": "node/13664329601"
    }
  ]
}